IRIDIUM 155             
1 43573U 18061E   22341.46332452  .00000271  00000+0  89860-4 0  9993
2 43573  86.3995 234.7898 0001762  85.6804 274.4593 14.34217657228783
IRIDIUM 154             
1 43574U 18061F   22342.14197819  .00000281  00000+0  93408-4 0  9990
2 43574  86.4000 234.5779 0002201  77.8531 282.2911 14.34216973228935
IRIDIUM 163             
1 43575U 18061G   22341.98340576  .00000302  00000+0  10077-3 0  9996
2 43575  86.3996 234.5991 0002301  89.7614 270.3846 14.34222444228889
IRIDIUM 156             
1 43576U 18061H   22341.95803297  .00000309  00000+0  10339-3 0  9996
2 43576  86.4001 234.6150 0002151  93.6441 266.5001 14.34215916228865
IRIDIUM 164             
1 43577U 18061J   22341.65993918  .00000270  00000+0  89347-4 0  9997
2 43577  86.3997 234.7603 0002260  81.8649 278.2803 14.34221635228879
IRIDIUM 159             
1 43578U 18061K   22341.41892077  .00000272  00000+0  90096-4 0  9991
2 43578  86.3996 234.8249 0002168  80.6382 279.5058 14.34220877228800
IRIDIUM 180             
1 43922U 19002A   22341.76725400  .00000062  00000+0  15079-4 0  9998
2 43922  86.3986 171.6484 0002432  83.2732 276.8741 14.34215920204461
IRIDIUM 176             
1 43923U 19002B   22341.78276646  .00000318  00000+0  46546-4 0  9991
2 43923  86.6123 171.6824 0002257  88.9782 271.1694 14.72255372209836
IRIDIUM 168             
1 43924U 19002C   22341.83067729  .00000066  00000+0  16555-4 0  9995
2 43924  86.3990 171.6628 0002161  83.3152 276.8290 14.34219121204459
IRIDIUM 173             
1 43925U 19002D   22341.81800771  .00000071  00000+0  18199-4 0  9998
2 43925  86.3986 171.6097 0002201  85.2781 274.8667 14.34217867204438
IRIDIUM 169             
1 43926U 19002E   22342.05311293  .00000367  00000+0  11355-3 0  9996
2 43926  86.4262 203.0613 0002139 259.2716 100.8242 14.38601914205175
IRIDIUM 172             
1 43927U 19002F   22341.81166251  .00000070  00000+0  17913-4 0  9990
2 43927  86.3986 171.6164 0002313  83.6870 276.4589 14.34219101204445
IRIDIUM 175             
1 43928U 19002G   22341.77648836  .00000278  00000+0  40261-4 0  9992
2 43928  86.6125 171.5205 0002172  87.2579 272.8886 14.72248522209826
IRIDIUM 171             
1 43929U 19002H   22341.79263432  .00000065  00000+0  16070-4 0  9995
2 43929  86.3996 171.7875 0002148  82.6634 277.4805 14.34217198204436
IRIDIUM 170             
1 43930U 19002J   22341.78885855  .00000314  00000+0  45855-4 0  9995
2 43930  86.6122 171.6850 0002307  88.0743 272.0738 14.72256921209847
IRIDIUM 167             
1 43931U 19002K   22341.78628150  .00000069  00000+0  17501-4 0  9993
2 43931  86.3987 171.6380 0002355  82.9342 277.2122 14.34219056204433
